NORAD_CAT_ID,OBJECT_NAME,OBJECT_TYPE,EPOCH,MEAN_MOTION,ECCENTRICITY,INCLINATION,RA_OF_ASC_NODE,ARG_OF_PERICENTER,MEAN_ANOMALY,BSTAR,MEAN_MOTION_DOT,MEAN_MOTION_DDOT,TLE_LINE0,TLE_LINE1,TLE_LINE2,SEMIMAJOR_AXIS,PERIOD,APOGEE,PERIGEE,DECAYED
53146.0,STARLINK-4099,PAYLOAD,2024-01-15 11:58:27,15.08849508,0.000145,53.2168,94.4899,89.6057,270.5101,8.2414e-05,1.024e-05,0.0,0 STARLINK-4099,1 53146U 22083Q   24015.49893141  .00001024  00000-0  82414-4 0  9995,2 53146  53.2168  94.4899 0001450  89.6057 270.5101 15.08849508 82839,6917.851,95.437,540.719,538.713,0.0
53146.0,STARLINK-4099,PAYLOAD,2024-01-16 10:13:52,15.08839353,0.0001661,53.2168,90.3256,103.7061,256.4117,-2.9263e-06,-3.35e-06,0.0,0 STARLINK-4099,1 53146U 22083Q   24016.42629820 -.00000335  00000-0 -29263-5 0  9990,2 53146  53.2168  90.3256 0001661 103.7061 256.4117 15.08839353 83601,6917.882,95.438,540.896,538.598,0.0
53146.0,STARLINK-4099,PAYLOAD,2024-01-16 13:24:38,15.08841601,0.0001738,53.2169,89.7291,111.4333,248.6844,2.5597e-05,1.19e-06,0.0,0 STARLINK-4099,1 53146U 22083Q   24016.55877646  .00000119  00000-0  25597-4 0  9998,2 53146  53.2169  89.7291 0001738 111.4333 248.6844 15.08841601 82996,6917.875,95.437,540.943,538.538,0.0
53146.0,STARLINK-4099,PAYLOAD,2024-01-16 15:00:01,15.08842745,0.000167,53.2164,89.4342,102.8044,257.3135,7.1263e-05,8.46e-06,0.0,0 STARLINK-4099,1 53146U 22083Q   24016.62501716  .00000846  00000-0  71263-4 0  9996,2 53146  53.2164  89.4342 0001670 102.8044 257.3135 15.08842745 83006,6917.872,95.437,540.892,538.582,0.0
53146.0,STARLINK-4099,PAYLOAD,2024-01-17 11:40:02,15.08836708,0.0001786,53.2178,85.5666,114.3495,245.7684,7.8834e-06,-1.63e-06,0.0,0 STARLINK-4099,1 53146U 22083Q   24017.48614218 -.00000163  00000-0  78834-5 0  9998,2 53146  53.2178  85.5666 0001786 114.3495 245.7684 15.08836708 83768,6917.89,95.438,540.991,538.52,0.0
53146.0,STARLINK-4099,PAYLOAD,2024-01-18 13:06:12,15.08848355,0.0001679,53.2183,80.8126,103.9587,256.1592,0.00022486,3.293e-05,0.0,0 STARLINK-4099,1 53146U 22083Q   24018.54597959  .00003293  00000-0  22486-3 0  9994,2 53146  53.2183  80.8126 0001679 103.9587 256.1592 15.08848355 83293,6917.855,95.437,540.881,538.558,0.0
53146.0,STARLINK-4099,PAYLOAD,2024-01-19 03:24:41,15.08838841,0.0001733,53.2182,78.1363,114.328,245.7894,0.00011588,1.557e-05,0.0,0 STARLINK-4099,1 53146U 22083Q   24019.14214507  .00001557  00000-0  11588-3 0  9998,2 53146  53.2182  78.1363 0001733 114.3280 245.7894 15.08838841 84011,6917.884,95.438,540.948,538.55,0.0
53146.0,STARLINK-4099,PAYLOAD,2024-01-19 11:21:37,15.08840406,0.0001637,53.2183,76.6497,83.9215,276.1964,0.00010175,1.332e-05,0.0,0 STARLINK-4099,1 53146U 22083Q   24019.47334653  .00001332  00000-0  10175-3 0  9991,2 53146  53.2183  76.6497 0001637  83.9215 276.1964 15.08840406 83436,6917.879,95.438,540.877,538.612,0.0
53146.0,STARLINK-4099,PAYLOAD,2024-01-20 09:37:01,15.08843654,0.0001974,53.2186,72.4865,63.8981,296.2214,8.1197e-05,1.004e-05,0.0,0 STARLINK-4099,1 53146U 22083Q   24020.40070807  .00001004  00000-0  81197-4 0  9993,2 53146  53.2186  72.4865 0001974  63.8981 296.2214 15.08843654 84208,6917.869,95.437,541.1,538.369,0.0
53146.0,STARLINK-4099,PAYLOAD,2024-01-20 12:47:47,15.08849055,0.0001781,53.2189,71.8866,78.7077,281.4116,0.00011966,1.617e-05,0.0,0 STARLINK-4099,1 53146U 22083Q   24020.53318293  .00001617  00000-0  11966-3 0  9997,2 53146  53.2189  71.8866 0001781  78.7077 281.4116 15.08849055 83591,6917.853,95.437,540.95,538.486,0.0
53146.0,STARLINK-4099,PAYLOAD,2024-01-21 03:06:15,15.08836485,0.0001405,53.2183,69.2158,65.3835,294.7303,5.5962e-05,6.03e-06,0.0,0 STARLINK-4099,1 53146U 22083Q   24021.12935057  .00000603  00000-0  55962-4 0  9995,2 53146  53.2183  69.2158 0001405  65.3835 294.7303 15.08836485 84316,6917.891,95.438,540.728,538.784,0.0
53146.0,STARLINK-4099,PAYLOAD,2024-01-21 09:27:47,15.08843834,0.0001801,53.2173,68.0259,118.0502,242.0673,0.00013753,1.902e-05,0.0,0 STARLINK-4099,1 53146U 22083Q   24021.39430315  .00001902  00000-0  13753-3 0  9995,2 53146  53.2173  68.0259 0001801 118.0502 242.0673 15.08843834 84357,6917.869,95.437,540.98,538.488,0.0
53146.0,STARLINK-4099,PAYLOAD,2024-01-22 02:57:02,15.08837637,0.0001515,53.216,64.7561,106.47,253.6458,0.00014466,2.015e-05,0.0,0 STARLINK-4099,1 53146U 22083Q   24022.12294821  .00002015  00000-0  14466-3 0  9995,2 53146  53.2160  64.7561 0001515 106.4700 253.6458 15.08837637 84460,6917.888,95.438,540.801,538.705,0.0
53146.0,STARLINK-4099,PAYLOAD,2024-01-22 09:18:35,15.08843307,0.0001622,53.217,63.5672,111.4194,248.6971,3.7263e-05,3.05e-06,0.0,0 STARLINK-4099,1 53146U 22083Q   24022.38790582  .00000305  00000-0  37263-4 0  9999,2 53146  53.2170  63.5672 0001622 111.4194 248.6971 15.08843307 83872,6917.87,95.437,540.857,538.613,0.0
53146.0,STARLINK-4099,PAYLOAD,2024-01-23 05:58:35,15.08842039,0.000172,53.2176,59.7016,108.3088,251.8092,8.1166e-05,1.004e-05,0.0,0 STARLINK-4099,1 53146U 22083Q   24023.24902670  .00001004  00000-0  81166-4 0  9996,2 53146  53.2176  59.7016 0001720 108.3088 251.8092 15.08842039 84000,6917.874,95.437,540.929,538.549,0.0
53146.0,STARLINK-4099,PAYLOAD,2024-01-23 09:09:22,15.08819735,0.0001985,53.2194,59.1074,110.3092,249.8113,0.00051607,7.93e-05,0.0,0 STARLINK-4099,1 53146U 22083Q   24023.38151449  .00007930  00000-0  51607-3 0  9991,2 53146  53.2194  59.1074 0001985 110.3092 249.8113 15.08819735 84658,6917.942,95.439,541.181,538.434,0.0
53146.0,STARLINK-4099,PAYLOAD,2024-01-24 09:00:09,15.08836859,0.000197,53.2197,54.647,111.5277,248.5925,7.6766e-05,9.34e-06,0.0,0 STARLINK-4099,1 53146U 22083Q   24024.37511351  .00000934  00000-0  76766-4 0  9994,2 53146  53.2197  54.6470 0001970 111.5277 248.5925 15.08836859 84173,6917.89,95.438,541.118,538.392,0.0
53146.0,STARLINK-4099,PAYLOAD,2024-01-24 23:18:37,15.0884081,0.0001932,53.2184,51.9735,117.3513,242.7676,-2.9809e-06,-3.36e-06,0.0,0 STARLINK-4099,1 53146U 22083Q   24024.97127049 -.00000336  00000-0 -29809-5 0  9992,2 53146  53.2184  51.9735 0001932 117.3513 242.7676 15.08840810 84898,6917.878,95.438,541.079,538.406,0.0
53146.0,STARLINK-4099,PAYLOAD,2024-01-25 07:15:33,15.08842195,0.0001842,53.2179,50.486,112.5016,247.6171,1.4442e-05,-5.8e-07,0.0,0 STARLINK-4099,1 53146U 22083Q   24025.30247025 -.00000058  00000-0  14442-4 0  9993,2 53146  53.2179  50.4860 0001842 112.5016 247.6171 15.08842195 84319,6917.874,95.437,541.013,538.464,0.0
53146.0,STARLINK-4099,PAYLOAD,2024-01-26 08:41:44,15.0884064,0.0001595,53.2182,45.7255,95.5607,264.5567,0.00011896,1.606e-05,0.0,0 STARLINK-4099,1 53146U 22083Q   24026.36231622  .00001606  00000-0  11896-3 0  9994,2 53146  53.2182  45.7255 0001595  95.5607 264.5567 15.08840640 85107,6917.878,95.438,540.847,538.64,0.0
53146.0,STARLINK-4099,PAYLOAD,2024-01-27 08:32:30,15.0884718,0.0001607,53.2183,41.2677,83.6413,276.4762,0.0001442,2.008e-05,0.0,0 STARLINK-4099,1 53146U 22083Q   24027.35591304  .00002008  00000-0  14420-3 0  9993,2 53146  53.2183  41.2677 0001607  83.6413 276.4762 15.08847180 84625,6917.858,95.437,540.835,538.612,0.0
53146.0,STARLINK-4099,PAYLOAD,2024-01-28 05:12:32,15.088383,0.000189,53.2195,37.3998,73.068,287.0519,4.8765e-05,4.88e-06,0.0,0 STARLINK-4099,1 53146U 22083Q   24028.21704179  .00000488  00000-0  48765-4 0  9995,2 53146  53.2195  37.3998 0001890  73.0680 287.0519 15.08838300 85389,6917.886,95.438,541.058,538.443,0.0
53146.0,STARLINK-4099,PAYLOAD,2024-01-28 09:58:41,15.08844446,0.0001645,53.2193,36.5045,86.7474,273.3706,8.3445e-05,1.04e-05,0.0,0 STARLINK-4099,1 53146U 22083Q   24028.41575566  .00001040  00000-0  83445-4 0  9992,2 53146  53.2193  36.5045 0001645  86.7474 273.3706 15.08844446 85419,6917.867,95.437,540.87,538.594,0.0
53146.0,STARLINK-4099,PAYLOAD,2024-01-29 06:38:41,15.08849611,0.0001729,53.2189,32.6396,88.0811,272.0379,8.3375e-05,1.039e-05,0.0,0 STARLINK-4099,1 53146U 22083Q   24029.27687219  .00001039  00000-0  83375-4 0  9996,2 53146  53.2189  32.6396 0001729  88.0811 272.0379 15.08849611 84918,6917.851,95.437,540.912,538.52,0.0
53146.0,STARLINK-4099,PAYLOAD,2024-01-30 03:18:43,15.08833654,0.0001892,53.2187,28.7712,108.529,251.5907,1.1396e-05,-1.07e-06,0.0,0 STARLINK-4099,1 53146U 22083Q   24030.13800453 -.00000107  00000-0  11396-4 0  9990,2 53146  53.2187  28.7712 0001892 108.5290 251.5907 15.08833654 85677,6917.9,95.438,541.074,538.456,0.0
53146.0,STARLINK-4099,PAYLOAD,2024-01-30 06:29:30,15.08830211,0.0001802,53.2198,28.1804,94.0036,266.1163,-5.3741e-06,-3.74e-06,0.0,0 STARLINK-4099,1 53146U 22083Q   24030.27048830 -.00000374  00000-0 -53741-5 0  9996,2 53146  53.2198  28.1804 0001802  94.0036 266.1163 15.08830211 85068,6917.91,95.438,541.022,538.529,0.0
53146.0,STARLINK-4099,PAYLOAD,2024-01-30 22:23:21,15.08836028,0.0001619,53.2181,25.2039,106.1578,253.9592,3.1123e-05,2.07e-06,0.0,0 STARLINK-4099,1 53146U 22083Q   24030.93288439  .00000207  00000-0  31123-4 0  9992,2 53146  53.2181  25.2039 0001619 106.1578 253.9592 15.08836028 85163,6917.893,95.438,540.878,538.638,0.0
53146.0,STARLINK-4099,PAYLOAD,2024-01-31 03:09:30,15.08843817,0.0001833,53.2195,24.314,99.9062,260.2138,7.1537e-05,8.51e-06,0.0,0 STARLINK-4099,1 53146U 22083Q   24031.13159876  .00000851  00000-0  71537-4 0  9995,2 53146  53.2195  24.3140 0001833  99.9062 260.2138 15.08843817 85820,6917.869,95.437,541.002,538.466,0.0
53146.0,STARLINK-4099,PAYLOAD,2024-01-31 04:44:53,15.08844978,0.0001839,53.2193,24.0166,98.7479,261.3722,8.2368e-05,1.023e-05,0.0,0 STARLINK-4099,1 53146U 22083Q   24031.19783779  .00001023  00000-0  82368-4 0  9992,2 53146  53.2193  24.0166 0001839  98.7479 261.3722 15.08844978 85200,6917.865,95.437,541.002,538.458,0.0
53146.0,STARLINK-4099,PAYLOAD,2024-02-01 03:00:17,15.0883218,0.0001738,53.2188,19.8528,101.137,258.9818,0.0001013,1.324e-05,0.0,0 STARLINK-4099,1 53146U 22083Q   24032.12520678  .00001324  00000-0  10130-3 0  9994,2 53146  53.2188  19.8528 0001738 101.1370 258.9818 15.08832180 85979,6917.904,95.438,540.972,538.567,0.0
